start=new Date('2023-06-11T00:00:00.000Z').valueOf();
sats=[{"NORAD_CAT_ID":"45219","REF_FRAME":"TEME","TIME_SYSTEM":"UTC","REV_AT_EPOCH":"18421","CENTER_NAME":"EARTH","GP_ID":"233650393","DECAY_DATE":null,"EPHEMERIS_TYPE":"0","ARG_OF_PERICENTER":"91.8442","MEAN_ANOMALY":"268.2663","PERIOD":"95.593","ECCENTRICITY":"0.00010100","MEAN_ELEMENT_THEORY":"SGP4","LAUNCH_DATE":"2020-02-17","OBJECT_TYPE":"PAYLOAD","FILE":"3929969","SITE":"AFETR","TLE_LINE1":"1 45219U 20012AT  23161.55262312  .00000341  00000-0  41752-4 0  9996","RA_OF_ASC_NODE":"189.8851","SEMIMAJOR_AXIS":"6925.369","ELEMENT_SET_NO":"999","APOAPSIS":"547.933","COUNTRY_CODE":"US","MEAN_MOTION_DOT":"0.00000341","OBJECT_ID":"2020-012AT","INCLINATION":"53.0527","TLE_LINE2":"2 45219  53.0527 189.8851 0001010  91.8442 268.2663 15.06393456184216","EPOCH":"2023-06-10T13:15:46.637568","CLASSIFICATION_TYPE":"U","BSTAR":"0.00004175200000","MEAN_MOTION_DDOT":"0.0000000000000","OBJECT_NAME":"STARLINK-1187","PERIAPSIS":"546.534","MEAN_MOTION":"15.06393456","RCS_SIZE":"LARGE"},{"NORAD_CAT_ID":"45221","REF_FRAME":"TEME","TIME_SYSTEM":"UTC","REV_AT_EPOCH":"18417","CENTER_NAME":"EARTH","GP_ID":"233650645","DECAY_DATE":null,"EPHEMERIS_TYPE":"0","ARG_OF_PERICENTER":"93.6748","MEAN_ANOMALY":"266.4366","PERIOD":"95.593","ECCENTRICITY":"0.00010910","MEAN_ELEMENT_THEORY":"SGP4","LAUNCH_DATE":"2020-02-17","OBJECT_TYPE":"PAYLOAD","FILE":"3929969","SITE":"AFETR","TLE_LINE1":"1 45221U 20012AV  23161.35726734  .00000729  00000-0  67841-4 0  9997","RA_OF_ASC_NODE":"190.7537","SEMIMAJOR_AXIS":"6925.371","ELEMENT_SET_NO":"999","APOAPSIS":"547.991","MEAN_MOTION_DOT":"0.00000729","COUNTRY_CODE":"US","OBJECT_ID":"2020-012AV","INCLINATION":"53.0534","TLE_LINE2":"2 45221  53.0534 190.7537 0001091  93.6748 266.4366 15.06392828184174","EPOCH":"2023-06-10T08:34:27.898176","CLASSIFICATION_TYPE":"U","BSTAR":"0.00006784100000","MEAN_MOTION_DDOT":"0.0000000000000","OBJECT_NAME":"STARLINK-1189","PERIAPSIS":"546.480","MEAN_MOTION":"15.06392828","RCS_SIZE":"LARGE"},{"REV_AT_EPOCH":"18417","TIME_SYSTEM":"UTC","GP_ID":"233616573","CENTER_NAME":"EARTH","DECAY_DATE":null,"REF_FRAME":"TEME","NORAD_CAT_ID":"45222","ECCENTRICITY":"0.00010370","PERIOD":"95.593","OBJECT_TYPE":"PAYLOAD","LAUNCH_DATE":"2020-02-17","MEAN_ELEMENT_THEORY":"SGP4","SITE":"AFETR","FILE":"3929709","EPHEMERIS_TYPE":"0","ARG_OF_PERICENTER":"74.4897","MEAN_ANOMALY":"285.6207","SEMIMAJOR_AXIS":"6925.373","ELEMENT_SET_NO":"999","APOAPSIS":"547.956","COUNTRY_CODE":"US","MEAN_MOTION_DOT":"-0.00000126","RA_OF_ASC_NODE":"190.7139","TLE_LINE1":"1 45222U 20012AW  23161.36463635 -.00000126  00000-0  10421-4 0  9991","BSTAR":"0.00001042100000","MEAN_MOTION_DDOT":"0.0000000000000","PERIAPSIS":"546.520","MEAN_MOTION":"15.06392005","OBJECT_NAME":"STARLINK-1191","RCS_SIZE":"LARGE","OBJECT_ID":"2020-012AW","EPOCH":"2023-06-10T08:45:04.580640","INCLINATION":"53.0529","TLE_LINE2":"2 45222  53.0529 190.7139 0001037  74.4897 285.6207 15.06392005184173","CLASSIFICATION_TYPE":"U"},{"REF_FRAME":"TEME","NORAD_CAT_ID":"45223","DECAY_DATE":null,"GP_ID":"233649644","CENTER_NAME":"EARTH","REV_AT_EPOCH":"18424","TIME_SYSTEM":"UTC","MEAN_ANOMALY":"268.1239","ARG_OF_PERICENTER":"91.9899","EPHEMERIS_TYPE":"0","SITE":"AFETR","FILE":"3929969","OBJECT_TYPE":"PAYLOAD","MEAN_ELEMENT_THEORY":"SGP4","LAUNCH_DATE":"2020-02-17","ECCENTRICITY":"0.00013080","PERIOD":"95.592","RA_OF_ASC_NODE":"188.8296","TLE_LINE1":"1 45223U 20012AX  23161.78388932  .00000757  00000-0  69683-4 0  9997","MEAN_MOTION_DOT":"0.00000757","COUNTRY_CODE":"US","APOAPSIS":"548.129","ELEMENT_SET_NO":"999","SEMIMAJOR_AXIS":"6925.358","CLASSIFICATION_TYPE":"U","EPOCH":"2023-06-10T18:48:48.037248","TLE_LINE2":"2 45223  53.0518 188.8296 0001308  91.9899 268.1239 15.06396842184243","INCLINATION":"53.0518","OBJECT_ID":"2020-012AX","RCS_SIZE":"LARGE","MEAN_MOTION":"15.06396842","PERIAPSIS":"546.317","OBJECT_NAME":"STARLINK-1212","MEAN_MOTION_DDOT":"0.0000000000000","BSTAR":"0.00006968300000"},{"RCS_SIZE":"LARGE","PERIAPSIS":"546.658","MEAN_MOTION":"15.06396214","OBJECT_NAME":"STARLINK-1215","MEAN_MOTION_DDOT":"0.0000000000000","BSTAR":"0.00006503900000","CLASSIFICATION_TYPE":"U","EPOCH":"2023-06-10T19:16:42.015648","TLE_LINE2":"2 45225  53.0529 188.7469 0000819  90.9150 269.1933 15.06396214184192","INCLINATION":"53.0529","OBJECT_ID":"2020-012AZ","COUNTRY_CODE":"US","MEAN_MOTION_DOT":"0.00000688","APOAPSIS":"547.792","ELEMENT_SET_NO":"999","SEMIMAJOR_AXIS":"6925.360","RA_OF_ASC_NODE":"188.7469","TLE_LINE1":"1 45225U 20012AZ  23161.80326407  .00000688  00000-0  65039-4 0  9995","SITE":"AFETR","FILE":"3929969","OBJECT_TYPE":"PAYLOAD","LAUNCH_DATE":"2020-02-17","MEAN_ELEMENT_THEORY":"SGP4","ECCENTRICITY":"0.00008190","PERIOD":"95.592","MEAN_ANOMALY":"269.1933","ARG_OF_PERICENTER":"90.9150","EPHEMERIS_TYPE":"0","DECAY_DATE":null,"CENTER_NAME":"EARTH","GP_ID":"233649894","REV_AT_EPOCH":"18419","TIME_SYSTEM":"UTC","REF_FRAME":"TEME","NORAD_CAT_ID":"45225"},{"ARG_OF_PERICENTER":"78.0373","MEAN_ANOMALY":"282.0721","EPHEMERIS_TYPE":"0","MEAN_ELEMENT_THEORY":"SGP4","LAUNCH_DATE":"2020-02-17","OBJECT_TYPE":"PAYLOAD","FILE":"3929969","SITE":"AFETR","PERIOD":"95.593","ECCENTRICITY":"0.00009380","NORAD_CAT_ID":"45226","REF_FRAME":"TEME","CENTER_NAME":"EARTH","GP_ID":"233651145","DECAY_DATE":null,"TIME_SYSTEM":"UTC","REV_AT_EPOCH":"18415","INCLINATION":"53.0527","TLE_LINE2":"2 45226  53.0527 188.7140 0000938  78.0373 282.0721 15.06394322184156","EPOCH":"2023-06-10T19:27:19.441152","CLASSIFICATION_TYPE":"U","OBJECT_ID":"2020-012BA","OBJECT_NAME":"STARLINK-1217","MEAN_MOTION":"15.06394322","PERIAPSIS":"546.581","RCS_SIZE":"LARGE","BSTAR":"0.00004997100000","MEAN_MOTION_DDOT":"0.0000000000000","TLE_LINE1":"1 45226U 20012BA  23161.81064168  .00000463  00000-0  49971-4 0  9998","RA_OF_ASC_NODE":"188.7140","APOAPSIS":"547.881","COUNTRY_CODE":"US","MEAN_MOTION_DOT":"0.00000463","SEMIMAJOR_AXIS":"6925.366","ELEMENT_SET_NO":"999"},{"RCS_SIZE":"LARGE","PERIAPSIS":"546.570","MEAN_MOTION":"15.06394433","OBJECT_NAME":"STARLINK-1221","MEAN_MOTION_DDOT":"0.0000000000000","BSTAR":"0.00004546100000","CLASSIFICATION_TYPE":"U","EPOCH":"2023-06-10T18:23:37.418784","TLE_LINE2":"2 45227  53.0537 188.9129 0000954  91.9119 268.1980 15.06394433184152","INCLINATION":"53.0537","OBJECT_ID":"2020-012BB","MEAN_MOTION_DOT":"0.00000396","COUNTRY_CODE":"US","APOAPSIS":"547.891","ELEMENT_SET_NO":"999","SEMIMAJOR_AXIS":"6925.366","RA_OF_ASC_NODE":"188.9129","TLE_LINE1":"1 45227U 20012BB  23161.76640531  .00000396  00000-0  45461-4 0  9992","SITE":"AFETR","FILE":"3929969","OBJECT_TYPE":"PAYLOAD","MEAN_ELEMENT_THEORY":"SGP4","LAUNCH_DATE":"2020-02-17","ECCENTRICITY":"0.00009540","PERIOD":"95.592","MEAN_ANOMALY":"268.1980","ARG_OF_PERICENTER":"91.9119","EPHEMERIS_TYPE":"0","DECAY_DATE":null,"CENTER_NAME":"EARTH","GP_ID":"233650891","REV_AT_EPOCH":"18415","TIME_SYSTEM":"UTC","REF_FRAME":"TEME","NORAD_CAT_ID":"45227"},{"TLE_LINE1":"1 45228U 20012BC  23161.77009537  .00000354  00000-0  42679-4 0  9991","RA_OF_ASC_NODE":"188.9010","SEMIMAJOR_AXIS":"6925.372","ELEMENT_SET_NO":"999","APOAPSIS":"547.878","MEAN_MOTION_DOT":"0.00000354","COUNTRY_CODE":"US","OBJECT_ID":"2020-012BC","TLE_LINE2":"2 45228  53.0532 188.9010 0000926  86.7843 273.3252 15.06392484184123","INCLINATION":"53.0532","EPOCH":"2023-06-10T18:28:56.239968","CLASSIFICATION_TYPE":"U","BSTAR":"0.00004267900000","MEAN_MOTION_DDOT":"0.0000000000000","OBJECT_NAME":"STARLINK-1222","MEAN_MOTION":"15.06392484","PERIAPSIS":"546.595","RCS_SIZE":"LARGE","NORAD_CAT_ID":"45228","REF_FRAME":"TEME","TIME_SYSTEM":"UTC","REV_AT_EPOCH":"18412","CENTER_NAME":"EARTH","GP_ID":"233650144","DECAY_DATE":null,"EPHEMERIS_TYPE":"0","ARG_OF_PERICENTER":"86.7843","MEAN_ANOMALY":"273.3252","PERIOD":"95.593","ECCENTRICITY":"0.00009260","LAUNCH_DATE":"2020-02-17","MEAN_ELEMENT_THEORY":"SGP4","OBJECT_TYPE":"PAYLOAD","FILE":"3929969","SITE":"AFETR"},{"MEAN_ELEMENT_THEORY":"SGP4","LAUNCH_DATE":"2020-02-17","OBJECT_TYPE":"PAYLOAD","FILE":"3929969","SITE":"AFETR","PERIOD":"95.592","ECCENTRICITY":"0.00008640","ARG_OF_PERICENTER":"89.1725","MEAN_ANOMALY":"270.9363","EPHEMERIS_TYPE":"0","CENTER_NAME":"EARTH","GP_ID":"233650394","DECAY_DATE":null,"TIME_SYSTEM":"UTC","REV_AT_EPOCH":"18413","NORAD_CAT_ID":"45229","REF_FRAME":"TEME","OBJECT_NAME":"STARLINK-1226","MEAN_MOTION":"15.06400056","PERIAPSIS":"546.615","RCS_SIZE":"LARGE","BSTAR":"0.00017556000000","MEAN_MOTION_DDOT":"0.0000000000000","INCLINATION":"53.0536","TLE_LINE2":"2 45229  53.0536 188.7672 0000864  89.1725 270.9363 15.06400056184139","EPOCH":"2023-06-10T19:11:24.030816","CLASSIFICATION_TYPE":"U","OBJECT_ID":"2020-012BD","APOAPSIS":"547.812","COUNTRY_CODE":"US","MEAN_MOTION_DOT":"0.00002335","SEMIMAJOR_AXIS":"6925.348","ELEMENT_SET_NO":"999","TLE_LINE1":"1 45229U 20012BD  23161.79958369  .00002335  00000-0  17556-3 0  9996","RA_OF_ASC_NODE":"188.7672"},{"DECAY_DATE":null,"GP_ID":"233650646","CENTER_NAME":"EARTH","REV_AT_EPOCH":"18425","TIME_SYSTEM":"UTC","REF_FRAME":"TEME","NORAD_CAT_ID":"45230","SITE":"AFETR","FILE":"3929969","OBJECT_TYPE":"PAYLOAD","MEAN_ELEMENT_THEORY":"SGP4","LAUNCH_DATE":"2020-02-17","ECCENTRICITY":"0.00009940","PERIOD":"95.592","MEAN_ANOMALY":"268.8360","ARG_OF_PERICENTER":"91.2742","EPHEMERIS_TYPE":"0","MEAN_MOTION_DOT":"0.00000578","COUNTRY_CODE":"US","APOAPSIS":"547.915","ELEMENT_SET_NO":"999","SEMIMAJOR_AXIS":"6925.362","RA_OF_ASC_NODE":"188.7802","TLE_LINE1":"1 45230U 20012BE  23161.79589562  .00000578  00000-0  57667-4 0  9998","RCS_SIZE":"LARGE","PERIAPSIS":"546.538","MEAN_MOTION":"15.06395741","OBJECT_NAME":"STARLINK-1227","MEAN_MOTION_DDOT":"0.0000000000000","BSTAR":"0.00005766700000","CLASSIFICATION_TYPE":"U","EPOCH":"2023-06-10T19:06:05.381568","INCLINATION":"53.0529","TLE_LINE2":"2 45230  53.0529 188.7802 0000994  91.2742 268.8360 15.06395741184255","OBJECT_ID":"2020-012BE"}];
